[
  {
    "OBJECT_NAME": "STARLINK-32168",
    "OBJECT_ID": "24136G",
    "EPOCH": "2025-11-11T06:43:39.325728",
    "MEAN_MOTION": 15.30206715,
    "ECCENTRICITY": 0.0001097,
    "INCLINATION": 53.1584,
    "RA_OF_ASC_NODE": 265.8017,
    "ARG_OF_PERICENTER": 91.9041,
    "MEAN_ANOMALY": 268.2085,
    "EPHEMERIS_TYPE": 0,
    "CLASSIFICATION_TYPE": "U",
    "NORAD_CAT_ID": 60335,
    "ELEMENT_SET_NO": 999,
    "REV_AT_EPOCH": 7153,
    "BSTAR": 0.00017499,
    "MEAN_MOTION_DOT": 4.828e-05,
    "MEAN_MOTION_DDOT": 0.0,
    "TLE_LINE1": "1 60335U 24136G   25315.28031627  .00004828  00000+0  17499-3 0  9992",
    "TLE_LINE2": "2 60335  53.1584 265.8017 0001097  91.9041 268.2085 15.30206715 71532",
    "COMMENT": "Grouped by shell and plane from TLE"
  },
  {
    "OBJECT_NAME": "STARLINK-32079",
    "OBJECT_ID": "24136H",
    "EPOCH": "2025-11-11T06:39:06.216192",
    "MEAN_MOTION": 15.30190772,
    "ECCENTRICITY": 0.0001586,
    "INCLINATION": 53.1604,
    "RA_OF_ASC_NODE": 265.7788,
    "ARG_OF_PERICENTER": 97.628,
    "MEAN_ANOMALY": 262.4901,
    "EPHEMERIS_TYPE": 0,
    "CLASSIFICATION_TYPE": "U",
    "NORAD_CAT_ID": 60336,
    "ELEMENT_SET_NO": 999,
    "REV_AT_EPOCH": 7153,
    "BSTAR": 5.5418000000000004e-05,
    "MEAN_MOTION_DOT": 1.282e-05,
    "MEAN_MOTION_DDOT": 0.0,
    "TLE_LINE1": "1 60336U 24136H   25315.27715528  .00001282  00000+0  55418-4 0  9996",
    "TLE_LINE2": "2 60336  53.1604 265.7788 0001586  97.6280 262.4901 15.30190772 71539",
    "COMMENT": "Grouped by shell and plane from TLE"
  },
  {
    "OBJECT_NAME": "STARLINK-32078",
    "OBJECT_ID": "24136K",
    "EPOCH": "2025-11-11T06:33:01.145952",
    "MEAN_MOTION": 15.30194086,
    "ECCENTRICITY": 0.0001691,
    "INCLINATION": 53.1614,
    "RA_OF_ASC_NODE": 265.7505,
    "ARG_OF_PERICENTER": 125.5181,
    "MEAN_ANOMALY": 234.5978,
    "EPHEMERIS_TYPE": 0,
    "CLASSIFICATION_TYPE": "U",
    "NORAD_CAT_ID": 60338,
    "ELEMENT_SET_NO": 999,
    "REV_AT_EPOCH": 7153,
    "BSTAR": 7.756800000000001e-05,
    "MEAN_MOTION_DOT": 1.938e-05,
    "MEAN_MOTION_DDOT": 0.0,
    "TLE_LINE1": "1 60338U 24136K   25315.27292993  .00001938  00000+0  77568-4 0  9992",
    "TLE_LINE2": "2 60338  53.1614 265.7505 0001691 125.5181 234.5978 15.30194086 71533",
    "COMMENT": "Grouped by shell and plane from TLE"
  },
  {
    "OBJECT_NAME": "STARLINK-32175",
    "OBJECT_ID": "24136L",
    "EPOCH": "2025-11-11T06:29:58.511040",
    "MEAN_MOTION": 15.30194928,
    "ECCENTRICITY": 0.0001072,
    "INCLINATION": 53.1614,
    "RA_OF_ASC_NODE": 265.7399,
    "ARG_OF_PERICENTER": 102.057,
    "MEAN_ANOMALY": 258.0551,
    "EPHEMERIS_TYPE": 0,
    "CLASSIFICATION_TYPE": "U",
    "NORAD_CAT_ID": 60339,
    "ELEMENT_SET_NO": 999,
    "REV_AT_EPOCH": 7153,
    "BSTAR": 7.9691e-05,
    "MEAN_MOTION_DOT": 2.001e-05,
    "MEAN_MOTION_DDOT": 0.0,
    "TLE_LINE1": "1 60339U 24136L   25315.27081610  .00002001  00000+0  79691-4 0  9996",
    "TLE_LINE2": "2 60339  53.1614 265.7399 0001072 102.0570 258.0551 15.30194928 71533",
    "COMMENT": "Grouped by shell and plane from TLE"
  },
  {
    "OBJECT_NAME": "STARLINK-32176",
    "OBJECT_ID": "24136M",
    "EPOCH": "2025-11-11T06:25:25.513824",
    "MEAN_MOTION": 15.30191256,
    "ECCENTRICITY": 0.0001313,
    "INCLINATION": 53.1615,
    "RA_OF_ASC_NODE": 265.7195,
    "ARG_OF_PERICENTER": 93.6725,
    "MEAN_ANOMALY": 266.4427,
    "EPHEMERIS_TYPE": 0,
    "CLASSIFICATION_TYPE": "U",
    "NORAD_CAT_ID": 60340,
    "ELEMENT_SET_NO": 999,
    "REV_AT_EPOCH": 7270,
    "BSTAR": 5.8215e-05,
    "MEAN_MOTION_DOT": 1.365e-05,
    "MEAN_MOTION_DDOT": 0.0,
    "TLE_LINE1": "1 60340U 24136M   25315.26765641  .00001365  00000+0  58215-4 0  9991",
    "TLE_LINE2": "2 60340  53.1615 265.7195 0001313  93.6725 266.4427 15.30191256 72701",
    "COMMENT": "Grouped by shell and plane from TLE"
  },
  {
    "OBJECT_NAME": "STARLINK-32185",
    "OBJECT_ID": "24136N",
    "EPOCH": "2025-11-11T06:14:47.156064",
    "MEAN_MOTION": 15.30194757,
    "ECCENTRICITY": 0.0001191,
    "INCLINATION": 53.1606,
    "RA_OF_ASC_NODE": 265.6756,
    "ARG_OF_PERICENTER": 92.4278,
    "MEAN_ANOMALY": 267.6859,
    "EPHEMERIS_TYPE": 0,
    "CLASSIFICATION_TYPE": "U",
    "NORAD_CAT_ID": 60341,
    "ELEMENT_SET_NO": 999,
    "REV_AT_EPOCH": 7153,
    "BSTAR": 0.00010378,
    "MEAN_MOTION_DOT": 2.715e-05,
    "MEAN_MOTION_DDOT": 0.0,
    "TLE_LINE1": "1 60341U 24136N   25315.26026801  .00002715  00000+0  10378-3 0  9997",
    "TLE_LINE2": "2 60341  53.1606 265.6756 0001191  92.4278 267.6859 15.30194757 71539",
    "COMMENT": "Grouped by shell and plane from TLE"
  },
  {
    "OBJECT_NAME": "STARLINK-32221",
    "OBJECT_ID": "24136P",
    "EPOCH": "2025-11-11T03:11:14.720064",
    "MEAN_MOTION": 15.3019614,
    "ECCENTRICITY": 0.0001369,
    "INCLINATION": 53.1614,
    "RA_OF_ASC_NODE": 266.305,
    "ARG_OF_PERICENTER": 74.4528,
    "MEAN_ANOMALY": 285.6624,
    "EPHEMERIS_TYPE": 0,
    "CLASSIFICATION_TYPE": "U",
    "NORAD_CAT_ID": 60342,
    "ELEMENT_SET_NO": 999,
    "REV_AT_EPOCH": 7151,
    "BSTAR": 0.00012883,
    "MEAN_MOTION_DOT": 3.458e-05,
    "MEAN_MOTION_DDOT": 0.0,
    "TLE_LINE1": "1 60342U 24136P   25315.13280926  .00003458  00000+0  12883-3 0  9992",
    "TLE_LINE2": "2 60342  53.1614 266.3050 0001369  74.4528 285.6624 15.30196140 71515",
    "COMMENT": "Grouped by shell and plane from TLE"
  },
  {
    "OBJECT_NAME": "STARLINK-32083",
    "OBJECT_ID": "24136Q",
    "EPOCH": "2025-11-11T06:20:51.166176",
    "MEAN_MOTION": 15.30204025,
    "ECCENTRICITY": 0.0001422,
    "INCLINATION": 53.1606,
    "RA_OF_ASC_NODE": 265.6677,
    "ARG_OF_PERICENTER": 81.2357,
    "MEAN_ANOMALY": 278.8805,
    "EPHEMERIS_TYPE": 0,
    "CLASSIFICATION_TYPE": "U",
    "NORAD_CAT_ID": 60343,
    "ELEMENT_SET_NO": 999,
    "REV_AT_EPOCH": 7153,
    "BSTAR": 0.00011171,
    "MEAN_MOTION_DOT": 2.951e-05,
    "MEAN_MOTION_DDOT": 0.0,
    "TLE_LINE1": "1 60343U 24136Q   25315.26448109  .00002951  00000+0  11171-3 0  9992",
    "TLE_LINE2": "2 60343  53.1606 265.6677 0001422  81.2357 278.8805 15.30204025 71539",
    "COMMENT": "Grouped by shell and plane from TLE"
  },
  {
    "OBJECT_NAME": "STARLINK-32077",
    "OBJECT_ID": "24136R",
    "EPOCH": "2025-11-11T04:36:10.429632",
    "MEAN_MOTION": 15.30205951,
    "ECCENTRICITY": 0.0001408,
    "INCLINATION": 53.162,
    "RA_OF_ASC_NODE": 265.9585,
    "ARG_OF_PERICENTER": 79.488,
    "MEAN_ANOMALY": 280.6279,
    "EPHEMERIS_TYPE": 0,
    "CLASSIFICATION_TYPE": "U",
    "NORAD_CAT_ID": 60344,
    "ELEMENT_SET_NO": 999,
    "REV_AT_EPOCH": 7152,
    "BSTAR": 0.00014612,
    "MEAN_MOTION_DOT": 3.972e-05,
    "MEAN_MOTION_DDOT": 0.0,
    "TLE_LINE1": "1 60344U 24136R   25315.19178738  .00003972  00000+0  14612-3 0  9990",
    "TLE_LINE2": "2 60344  53.1620 265.9585 0001408  79.4880 280.6279 15.30205951 71525",
    "COMMENT": "Grouped by shell and plane from TLE"
  },
  {
    "OBJECT_NAME": "STARLINK-32075",
    "OBJECT_ID": "24136S",
    "EPOCH": "2025-11-11T04:30:05.505408",
    "MEAN_MOTION": 15.30199608,
    "ECCENTRICITY": 0.0001391,
    "INCLINATION": 53.1616,
    "RA_OF_ASC_NODE": 265.9323,
    "ARG_OF_PERICENTER": 78.1353,
    "MEAN_ANOMALY": 281.9804,
    "EPHEMERIS_TYPE": 0,
    "CLASSIFICATION_TYPE": "U",
    "NORAD_CAT_ID": 60345,
    "ELEMENT_SET_NO": 999,
    "REV_AT_EPOCH": 7152,
    "BSTAR": 4.5716e-05,
    "MEAN_MOTION_DOT": 9.95e-06,
    "MEAN_MOTION_DDOT": 0.0,
    "TLE_LINE1": "1 60345U 24136S   25315.18756372  .00000995  00000+0  45716-4 0  9998",
    "TLE_LINE2": "2 60345  53.1616 265.9323 0001391  78.1353 281.9804 15.30199608 71522",
    "COMMENT": "Grouped by shell and plane from TLE"
  },
  {
    "OBJECT_NAME": "STARLINK-32082",
    "OBJECT_ID": "24136T",
    "EPOCH": "2025-11-11T06:05:40.026336",
    "MEAN_MOTION": 15.30198438,
    "ECCENTRICITY": 0.0001263,
    "INCLINATION": 53.1625,
    "RA_OF_ASC_NODE": 265.6342,
    "ARG_OF_PERICENTER": 94.636,
    "MEAN_ANOMALY": 265.4785,
    "EPHEMERIS_TYPE": 0,
    "CLASSIFICATION_TYPE": "U",
    "NORAD_CAT_ID": 60346,
    "ELEMENT_SET_NO": 999,
    "REV_AT_EPOCH": 7153,
    "BSTAR": 3.0381999999999998e-05,
    "MEAN_MOTION_DOT": 5.41e-06,
    "MEAN_MOTION_DDOT": 0.0,
    "TLE_LINE1": "1 60346U 24136T   25315.25393549  .00000541  00000+0  30382-4 0  9990",
    "TLE_LINE2": "2 60346  53.1625 265.6342 0001263  94.6360 265.4785 15.30198438 71536",
    "COMMENT": "Grouped by shell and plane from TLE"
  },
  {
    "OBJECT_NAME": "STARLINK-32084",
    "OBJECT_ID": "24136U",
    "EPOCH": "2025-11-11T04:27:03.104640",
    "MEAN_MOTION": 15.30197705,
    "ECCENTRICITY": 0.000103,
    "INCLINATION": 53.1611,
    "RA_OF_ASC_NODE": 265.9176,
    "ARG_OF_PERICENTER": 95.0466,
    "MEAN_ANOMALY": 265.0652,
    "EPHEMERIS_TYPE": 0,
    "CLASSIFICATION_TYPE": "U",
    "NORAD_CAT_ID": 60347,
    "ELEMENT_SET_NO": 999,
    "REV_AT_EPOCH": 7152,
    "BSTAR": 7.562100000000001e-05,
    "MEAN_MOTION_DOT": 1.881e-05,
    "MEAN_MOTION_DDOT": 0.0,
    "TLE_LINE1": "1 60347U 24136U   25315.18545260  .00001881  00000+0  75621-4 0  9995",
    "TLE_LINE2": "2 60347  53.1611 265.9176 0001030  95.0466 265.0652 15.30197705 71528",
    "COMMENT": "Grouped by shell and plane from TLE"
  },
  {
    "OBJECT_NAME": "STARLINK-32081",
    "OBJECT_ID": "24136V",
    "EPOCH": "2025-11-11T05:56:32.858592",
    "MEAN_MOTION": 15.30198827,
    "ECCENTRICITY": 0.0001061,
    "INCLINATION": 53.1617,
    "RA_OF_ASC_NODE": 265.5944,
    "ARG_OF_PERICENTER": 100.9275,
    "MEAN_ANOMALY": 259.1846,
    "EPHEMERIS_TYPE": 0,
    "CLASSIFICATION_TYPE": "U",
    "NORAD_CAT_ID": 60348,
    "ELEMENT_SET_NO": 999,
    "REV_AT_EPOCH": 7153,
    "BSTAR": 0.00012079,
    "MEAN_MOTION_DOT": 3.22e-05,
    "MEAN_MOTION_DDOT": 0.0,
    "TLE_LINE1": "1 60348U 24136V   25315.24760253  .00003220  00000+0  12079-3 0  9990",
    "TLE_LINE2": "2 60348  53.1617 265.5944 0001061 100.9275 259.1846 15.30198827 71538",
    "COMMENT": "Grouped by shell and plane from TLE"
  }
]